{
  "norad_id": 57241,
  "name": "STARLINK-6349",
  "history": [
    {
      "epoch": "2026-03-28T22:00:01.999584Z",
      "apogee_km": 486.8361201155076,
      "perigee_km": 484.50503378622307,
      "latitude_deg": -9.920888640567634,
      "longitude_deg": 103.98769632429725,
      "height_km": 486.92115361465756,
      "semi_major_axis_km": 6863.807576950865,
      "eccentricity": 0.00016981,
      "inclination_deg": 42.9994,
      "raan_deg": 271.0766,
      "arg_perigee_deg": 272.5607,
      "mean_anomaly_deg": 72.9564,
      "mean_motion_rev_day": 15.26704945
    },
    {
      "epoch": "2026-03-29T04:00:01.999584Z",
      "apogee_km": 486.7360944080956,
      "perigee_km": 484.2624398974149,
      "latitude_deg": -42.15483290608053,
      "longitude_deg": -51.82287277505282,
      "height_km": 497.2227688716919,
      "semi_major_axis_km": 6863.636267152755,
      "eccentricity": 0.0001802,
      "inclination_deg": 42.9997,
      "raan_deg": 269.6642,
      "arg_perigee_deg": 269.6589,
      "mean_anomaly_deg": 11.5197,
      "mean_motion_rev_day": 15.26762103
    },
    {
      "epoch": "2026-03-30T04:00:01.999584Z",
      "apogee_km": 486.7760060015589,
      "perigee_km": 484.3790596124127,
      "latitude_deg": 16.12110922895222,
      "longitude_deg": 34.40678012655548,
      "height_km": 485.32913055897654,
      "semi_major_axis_km": 6863.7145328069855,
      "eccentricity": 0.00017461,
      "inclination_deg": 42.9994,
      "raan_deg": 264.0239,
      "arg_perigee_deg": 261.2343,
      "mean_anomaly_deg": 122.7128,
      "mean_motion_rev_day": 15.26735989
    },
    {
      "epoch": "2026-03-30T14:00:03.000384Z",
      "apogee_km": 486.6229872480908,
      "perigee_km": 484.5898091786712,
      "latitude_deg": 15.643922300480419,
      "longitude_deg": 26.313356466262807,
      "height_km": 485.06186151069693,
      "semi_major_axis_km": 6863.743398213381,
      "eccentricity": 0.00014811,
      "inclination_deg": 42.9992,
      "raan_deg": 261.6752,
      "arg_perigee_deg": 268.1974,
      "mean_anomaly_deg": 248.5846,
      "mean_motion_rev_day": 15.26726358
    },
    {
      "epoch": "2026-03-30T22:00:00.999936Z",
      "apogee_km": 486.7730975888435,
      "perigee_km": 484.60495222409645,
      "latitude_deg": -7.488155370055682,
      "longitude_deg": -70.45176442941441,
      "height_km": 486.669719613792,
      "semi_major_axis_km": 6863.82602490647,
      "eccentricity": 0.00015794,
      "inclination_deg": 42.9996,
      "raan_deg": 259.7958,
      "arg_perigee_deg": 277.177,
      "mean_anomaly_deg": 273.7086,
      "mean_motion_rev_day": 15.2669879
    },
    {
      "epoch": "2026-03-31T19:08:59.646912Z",
      "apogee_km": 486.58144107099724,
      "perigee_km": 484.5456674865982,
      "latitude_deg": -2.3207223572217766e-05,
      "longitude_deg": 138.40381981274624,
      "height_km": 485.34833343536553,
      "semi_major_axis_km": 6863.700554278797,
      "eccentricity": 0.0001483,
      "inclination_deg": 42.9992,
      "raan_deg": 254.8225,
      "arg_perigee_deg": 269.5489,
      "mean_anomaly_deg": 90.5192,
      "mean_motion_rev_day": 15.26740653
    },
    {
      "epoch": "2026-04-01T18:42:06.920928Z",
      "apogee_km": 486.59174206161424,
      "perigee_km": 484.52439710665476,
      "latitude_deg": -4.8342218545485595e-05,
      "longitude_deg": 138.6209387368459,
      "height_km": 485.3246189462866,
      "semi_major_axis_km": 6863.695069584134,
      "eccentricity": 0.0001506,
      "inclination_deg": 42.9993,
      "raan_deg": 249.2872,
      "arg_perigee_deg": 270.5682,
      "mean_anomaly_deg": 89.4996,
      "mean_motion_rev_day": 15.26742483
    },
    {
      "epoch": "2026-04-02T18:15:13.884768Z",
      "apogee_km": 486.5323832967988,
      "perigee_km": 484.5556431649884,
      "latitude_deg": -2.0847304767122328e-05,
      "longitude_deg": 138.8394092864638,
      "height_km": 485.3408035580648,
      "semi_major_axis_km": 6863.681013230894,
      "eccentricity": 0.000144,
      "inclination_deg": 42.9995,
      "raan_deg": 243.7519,
      "arg_perigee_deg": 268.8388,
      "mean_anomaly_deg": 91.2298,
      "mean_motion_rev_day": 15.26747173
    },
    {
      "epoch": "2026-04-02T18:15:13.885632Z",
      "apogee_km": 486.53252057041936,
      "perigee_km": 484.55550589136874,
      "latitude_deg": -1.9275294533859867e-05,
      "longitude_deg": 138.8394073530985,
      "height_km": 485.34080633960747,
      "semi_major_axis_km": 6863.681013230894,
      "eccentricity": 0.00014402,
      "inclination_deg": 42.9995,
      "raan_deg": 243.7519,
      "arg_perigee_deg": 268.8388,
      "mean_anomaly_deg": 91.2298,
      "mean_motion_rev_day": 15.26747173
    },
    {
      "epoch": "2026-04-03T16:14:08.404224Z",
      "apogee_km": 486.44106556584575,
      "perigee_km": 484.62631103585954,
      "latitude_deg": -5.441646260114348e-05,
      "longitude_deg": 163.04304830499808,
      "height_km": 485.41343459854284,
      "semi_major_axis_km": 6863.670688300853,
      "eccentricity": 0.0001322,
      "inclination_deg": 42.9997,
      "raan_deg": 238.5855,
      "arg_perigee_deg": 263.4772,
      "mean_anomaly_deg": 96.5928,
      "mean_motion_rev_day": 15.26750618
    },
    {
      "epoch": "2026-04-04T17:21:28.272096Z",
      "apogee_km": 486.66523732558835,
      "perigee_km": 484.44689172713424,
      "latitude_deg": -8.482956375800138e-06,
      "longitude_deg": 139.27598228151876,
      "height_km": 485.3316998921909,
      "semi_major_axis_km": 6863.693064526361,
      "eccentricity": 0.0001616,
      "inclination_deg": 43.0012,
      "raan_deg": 232.6829,
      "arg_perigee_deg": 270.0754,
      "mean_anomaly_deg": 89.9912,
      "mean_motion_rev_day": 15.26743152
    },
    {
      "epoch": "2026-04-04T17:21:28.272960Z",
      "apogee_km": 486.6649627778661,
      "perigee_km": 484.4471662748565,
      "latitude_deg": -1.1630845476379636e-05,
      "longitude_deg": 139.27597531475672,
      "height_km": 485.33170025361056,
      "semi_major_axis_km": 6863.693064526361,
      "eccentricity": 0.00016156,
      "inclination_deg": 43.0012,
      "raan_deg": 232.6829,
      "arg_perigee_deg": 270.0754,
      "mean_anomaly_deg": 89.9912,
      "mean_motion_rev_day": 15.26743152
    },
    {
      "epoch": "2026-04-05T16:54:35.034624Z",
      "apogee_km": 486.50136395311347,
      "perigee_km": 484.5658088477485,
      "latitude_deg": 1.2698291831909445e-05,
      "longitude_deg": 139.49518486425723,
      "height_km": 485.3391818738558,
      "semi_major_axis_km": 6863.670586400431,
      "eccentricity": 0.000141,
      "inclination_deg": 43.0016,
      "raan_deg": 227.1475,
      "arg_perigee_deg": 268.3047,
      "mean_anomaly_deg": 91.7643,
      "mean_motion_rev_day": 15.26750652
    },
    {
      "epoch": "2026-04-05T16:54:35.036352Z",
      "apogee_km": 486.50136395311347,
      "perigee_km": 484.5658088477485,
      "latitude_deg": 1.2698291831670365e-05,
      "longitude_deg": 139.4951776445457,
      "height_km": 485.3391818738558,
      "semi_major_axis_km": 6863.670586400431,
      "eccentricity": 0.000141,
      "inclination_deg": 43.0016,
      "raan_deg": 227.1475,
      "arg_perigee_deg": 268.3047,
      "mean_anomaly_deg": 91.7643,
      "mean_motion_rev_day": 15.26750652
    },
    {
      "epoch": "2026-04-07T14:26:37.656672Z",
      "apogee_km": 486.52798337953664,
      "perigee_km": 484.5541268444467,
      "latitude_deg": 2.125477189758478e-05,
      "longitude_deg": 163.91284654860246,
      "height_km": 485.35874240839735,
      "semi_major_axis_km": 6863.678055111991,
      "eccentricity": 0.00014379,
      "inclination_deg": 43.0017,
      "raan_deg": 216.4461,
      "arg_perigee_deg": 267.637,
      "mean_anomaly_deg": 92.4317,
      "mean_motion_rev_day": 15.2674816
    },
    {
      "epoch": "2026-04-07T16:00:50.049216Z",
      "apogee_km": 486.50151148180703,
      "perigee_km": 484.58105429825446,
      "latitude_deg": -1.2553687617731852e-06,
      "longitude_deg": 139.92790466535251,
      "height_km": 485.3324570202414,
      "semi_major_axis_km": 6863.6782828900305,
      "eccentricity": 0.0001399,
      "inclination_deg": 43.0016,
      "raan_deg": 216.0773,
      "arg_perigee_deg": 269.1518,
      "mean_anomaly_deg": 90.9173,
      "mean_motion_rev_day": 15.26748084
    },
    {
      "epoch": "2026-04-08T09:17:07.832544Z",
      "apogee_km": 486.59744745967964,
      "perigee_km": 484.5506888191603,
      "latitude_deg": 2.9215650134213308e-05,
      "longitude_deg": -123.91468188440369,
      "height_km": 485.31037766168737,
      "semi_major_axis_km": 6863.71106813942,
      "eccentricity": 0.0001491,
      "inclination_deg": 43.0013,
      "raan_deg": 212.0181,
      "arg_perigee_deg": 272.2791,
      "mean_anomaly_deg": 87.789,
      "mean_motion_rev_day": 15.26737145
    },
    {
      "epoch": "2026-04-09T15:07:04.596384Z",
      "apogee_km": 486.4734312607443,
      "perigee_km": 484.6312170461415,
      "latitude_deg": 1.5815593622066983e-06,
      "longitude_deg": 140.3625943750681,
      "height_km": 485.3983353884579,
      "semi_major_axis_km": 6863.689324153443,
      "eccentricity": 0.0001342,
      "inclination_deg": 43.0017,
      "raan_deg": 205.0071,
      "arg_perigee_deg": 265.6978,
      "mean_anomaly_deg": 94.372,
      "mean_motion_rev_day": 15.267444
    },
    {
      "epoch": "2026-04-10T06:49:09.340032Z",
      "apogee_km": 486.4538788233349,
      "perigee_km": 484.6454346630162,
      "latitude_deg": -1.889512013609206e-05,
      "longitude_deg": -99.49232461928162,
      "height_km": 485.53034876192294,
      "semi_major_axis_km": 6863.686656743175,
      "eccentricity": 0.00013174,
      "inclination_deg": 43.0017,
      "raan_deg": 201.3168,
      "arg_perigee_deg": 256.9716,
      "mean_anomaly_deg": 103.0988,
      "mean_motion_rev_day": 15.2674529
    }
  ]
}